[{"OBJECT_NAME":"OBJECT V","OBJECT_ID":"2023-085V","EPOCH":"2026-03-09T21:44:00.165408","MEAN_MOTION":15.30745852,"ECCENTRICITY":0.00069081,"INCLINATION":97.4843,"RA_OF_ASC_NODE":179.3833,"ARG_OF_PERICENTER":71.0503,"MEAN_ANOMALY":289.1485,"EPHEMERIS_TYPE":0,"CLASSIFICATION_TYPE":"U","NORAD_CAT_ID":57023,"ELEMENT_SET_NO":999,"REV_AT_EPOCH":15149,"BSTAR":0.00067780507,"MEAN_MOTION_DOT":0.00020109,"MEAN_MOTION_DDOT":0},{"OBJECT_NAME":"STARLINK-31780","OBJECT_ID":"2024-065M","EPOCH":"2026-03-09T20:21:36.400608","MEAN_MOTION":15.30188189,"ECCENTRICITY":0.00013265,"INCLINATION":53.1605,"RA_OF_ASC_NODE":280.9375,"ARG_OF_PERICENTER":91.6245,"MEAN_ANOMALY":268.4908,"EPHEMERIS_TYPE":0,"CLASSIFICATION_TYPE":"U","NORAD_CAT_ID":59432,"ELEMENT_SET_NO":999,"REV_AT_EPOCH":10895,"BSTAR":3.5900081e-5,"MEAN_MOTION_DOT":7.04e-6,"MEAN_MOTION_DDOT":0}]
